NORAD_CAT_ID,OBJECT_NAME,OBJECT_TYPE,EPOCH,MEAN_MOTION,ECCENTRICITY,INCLINATION,RA_OF_ASC_NODE,ARG_OF_PERICENTER,MEAN_ANOMALY,BSTAR,MEAN_MOTION_DOT,MEAN_MOTION_DDOT,TLE_LINE0,TLE_LINE1,TLE_LINE2,SEMIMAJOR_AXIS,PERIOD,APOGEE,PERIGEE,DECAYED
55312.0,STARLINK-5296,PAYLOAD,2024-04-25 12:47:19,14.98328978,0.0002872,70.0,286.7562,256.7333,103.3506,3.9076e-05,3.73e-06,0.0,0 STARLINK-5296,1 55312U 23010AV  24116.53286510  .00000373  00000-0  39076-4 0  9998,2 55312  70.0000 286.7562 0002872 256.7333 103.3506 14.98328978 71127,6950.196,96.107,574.057,570.065,0.0
55312.0,STARLINK-5296,PAYLOAD,2024-04-25 14:23:27,14.98328777,0.000288,70.0,286.5879,256.9813,103.1024,3.5195e-05,3.27e-06,0.0,0 STARLINK-5296,1 55312U 23010AV  24116.59962535  .00000327  00000-0  35195-4 0  9999,2 55312  70.0000 286.5879 0002880 256.9813 103.1024 14.98328777 72323,6950.197,96.107,574.063,570.06,0.0
55312.0,STARLINK-5296,PAYLOAD,2024-04-25 19:11:51,14.9832902,0.0002872,70.0001,286.0831,256.3974,103.6865,3.5989e-05,3.36e-06,0.0,0 STARLINK-5296,1 55312U 23010AV  24116.79990527  .00000336  00000-0  35989-4 0  9994,2 55312  70.0001 286.0831 0002872 256.3974 103.6865 14.98329020 72353,6950.196,96.107,574.057,570.065,0.0
55312.0,STARLINK-5296,PAYLOAD,2024-04-26 12:49:20,14.98331325,0.0002891,70.0001,284.2319,259.2459,100.8374,7.9276e-05,8.53e-06,0.0,0 STARLINK-5296,1 55312U 23010AV  24117.53426265  .00000853  00000-0  79276-4 0  9991,2 55312  70.0001 284.2319 0002891 259.2459 100.8374 14.98331325 71270,6950.189,96.107,574.063,570.044,0.0
55312.0,STARLINK-5296,PAYLOAD,2024-04-26 14:25:28,14.98331283,0.0002897,70.0,284.0636,259.2522,100.8311,7.6968e-05,8.26e-06,0.0,0 STARLINK-5296,1 55312U 23010AV  24117.60102271  .00000826  00000-0  76968-4 0  9992,2 55312  70.0000 284.0636 0002897 259.2522 100.8311 14.98331283 72473,6950.189,96.107,574.067,570.04,0.0
55312.0,STARLINK-5296,PAYLOAD,2024-04-26 20:50:00,14.98336242,0.0003156,69.9992,283.389,270.702,89.3778,0.00016312,1.854e-05,0.0,0 STARLINK-5296,1 55312U 23010AV  24117.86805790  .00001854  00000-0  16312-3 0  9994,2 55312  69.9992 283.3890 0003156 270.7020  89.3778 14.98336242 72517,6950.174,96.107,574.232,569.845,0.0
55312.0,STARLINK-5296,PAYLOAD,2024-04-27 12:51:21,14.98325544,0.0002639,70.0002,281.7049,263.1201,96.9658,2.195e-05,1.69e-06,0.0,0 STARLINK-5296,1 55312U 23010AV  24118.53566747  .00000169  00000-0  21950-4 0  9998,2 55312  70.0002 281.7049 0002639 263.1201  96.9658 14.98325544 71425,6950.207,96.107,573.906,570.238,0.0
55312.0,STARLINK-5296,PAYLOAD,2024-04-27 14:27:29,14.98325271,0.0002705,70.0,281.5366,264.9698,95.1153,1.4039e-05,7.5e-07,0.0,0 STARLINK-5296,1 55312U 23010AV  24118.60242801  .00000075  00000-0  14039-4 0  9994,2 55312  70.0000 281.5366 0002705 264.9698  95.1153 14.98325271 72627,6950.208,96.107,573.953,570.192,0.0
55312.0,STARLINK-5296,PAYLOAD,2024-04-27 20:52:01,14.9832802,0.0003018,69.9991,280.863,266.9403,93.1411,3.385e-05,3.11e-06,0.0,0 STARLINK-5296,1 55312U 23010AV  24118.86946612  .00000311  00000-0  33850-4 0  9998,2 55312  69.9991 280.8630 0003018 266.9403  93.1411 14.98328020 72667,6950.199,96.107,574.162,569.966,0.0
55312.0,STARLINK-5296,PAYLOAD,2024-04-28 12:53:22,14.98326422,0.0003128,69.9992,279.1797,271.9359,88.1441,-1.3982e-05,-2.6e-06,0.0,0 STARLINK-5296,1 55312U 23010AV  24119.53706908 -.00000260  00000-0 -13982-4 0  9994,2 55312  69.9992 279.1797 0003128 271.9359  88.1441 14.98326422 71571,6950.204,96.107,574.243,569.895,0.0
55312.0,STARLINK-5296,PAYLOAD,2024-04-28 14:29:31,14.98315966,0.0002385,69.9998,279.0114,268.9541,91.1345,0.00016737,1.904e-05,0.0,0 STARLINK-5296,1 55312U 23010AV  24119.60383135  .00001904  00000-0  16737-3 0  9999,2 55312  69.9998 279.0114 0002385 268.9541  91.1345 14.98315966 72773,6950.236,96.108,573.759,570.444,0.0
55312.0,STARLINK-5296,PAYLOAD,2024-04-28 20:54:02,14.98330011,0.000315,69.9991,278.3382,271.7424,88.3374,1.8444e-05,1.27e-06,0.0,0 STARLINK-5296,1 55312U 23010AV  24119.87086629  .00000127  00000-0  18444-4 0  9990,2 55312  69.9991 278.3382 0003150 271.7424  88.3374 14.98330011 72811,6950.193,96.107,574.247,569.869,0.0
55312.0,STARLINK-5296,PAYLOAD,2024-04-29 03:18:34,14.98334909,0.0003027,69.9994,277.6649,270.0446,90.0366,-5.7558e-05,-7.8e-06,0.0,0 STARLINK-5296,1 55312U 23010AV  24120.13790453 -.00000780  00000-0 -57558-4 0  9994,2 55312  69.9994 277.6649 0003027 270.0446  90.0366 14.98334909 71664,6950.178,96.107,574.147,569.939,0.0
55312.0,STARLINK-5296,PAYLOAD,2024-04-29 14:31:31,14.9833019,0.0003038,69.9991,276.4865,268.648,91.4331,9.5501e-05,1.047e-05,0.0,0 STARLINK-5296,1 55312U 23010AV  24120.60522414  .00001047  00000-0  95501-4 0  9991,2 55312  69.9991 276.4865 0003038 268.6480  91.4331 14.98330190 72926,6950.192,96.107,574.169,569.946,0.0
55312.0,STARLINK-5296,PAYLOAD,2024-04-29 19:19:55,14.98332346,0.0003011,69.9992,275.982,266.719,93.3624,9.7984e-05,1.076e-05,0.0,0 STARLINK-5296,1 55312U 23010AV  24120.80550249  .00001076  00000-0  97984-4 0  9999,2 55312  69.9992 275.9820 0003011 266.7190  93.3624 14.98332346 72954,6950.186,96.107,574.143,569.958,0.0
55312.0,STARLINK-5296,PAYLOAD,2024-04-30 03:20:35,14.98331701,0.0003013,69.9993,275.1401,267.8265,92.2549,8.2009e-05,8.86e-06,0.0,0 STARLINK-5296,1 55312U 23010AV  24121.13930298  .00000886  00000-0  82009-4 0  9992,2 55312  69.9993 275.1401 0003013 267.8265  92.2549 14.98331701 71811,6950.188,96.107,574.147,569.959,0.0
55312.0,STARLINK-5296,PAYLOAD,2024-04-30 14:33:32,14.98329924,0.000309,69.9992,273.9618,267.6154,92.4652,4.1861e-05,4.06e-06,0.0,0 STARLINK-5296,1 55312U 23010AV  24121.60662493  .00000406  00000-0  41861-4 0  9992,2 55312  69.9992 273.9618 0003090 267.6154  92.4652 14.98329924 73077,6950.193,96.107,574.206,569.911,0.0
55312.0,STARLINK-5296,PAYLOAD,2024-04-30 19:21:56,14.98334224,0.0003104,69.9993,273.4567,268.5805,91.4998,8.4812e-05,9.19e-06,0.0,0 STARLINK-5296,1 55312U 23010AV  24121.80690086  .00000919  00000-0  84812-4 0  9995,2 55312  69.9993 273.4567 0003104 268.5805  91.4998 14.98334224 73100,6950.18,96.107,574.202,569.887,0.0
55312.0,STARLINK-5296,PAYLOAD,2024-05-01 03:22:36,14.9833445,0.0003124,69.9993,272.615,269.1535,90.9266,5.5632e-05,5.71e-06,0.0,0 STARLINK-5296,1 55312U 23010AV  24122.14070055  .00000571  00000-0  55632-4 0  9993,2 55312  69.9993 272.6150 0003124 269.1535  90.9266 14.98334450 71963,6950.179,96.107,574.215,569.873,0.0
55312.0,STARLINK-5296,PAYLOAD,2024-05-01 09:47:08,14.98332356,0.0003095,69.9994,271.9421,269.2789,90.8015,1.9121e-05,1.35e-06,0.0,0 STARLINK-5296,1 55312U 23010AV  24122.40774233  .00000135  00000-0  19121-4 0  9990,2 55312  69.9994 271.9421 0003095 269.2789  90.8015 14.98332356 73197,6950.186,96.107,574.202,569.9,0.0
55312.0,STARLINK-5296,PAYLOAD,2024-05-01 16:11:40,14.98336009,0.0003123,69.9994,271.2686,269.3748,90.7053,1.487e-05,8.4e-07,0.0,0 STARLINK-5296,1 55312U 23010AV  24122.67477911  .00000084  00000-0  14870-4 0  9991,2 55312  69.9994 271.2686 0003123 269.3748  90.7053 14.98336009 73236,6950.174,96.107,574.21,569.869,0.0
55312.0,STARLINK-5296,PAYLOAD,2024-05-02 03:24:37,14.98339349,0.0003204,69.9989,270.0889,270.2772,89.8019,-0.00011087,-1.416e-05,0.0,0 STARLINK-5296,1 55312U 23010AV  24123.14209805 -.00001416  00000-0 -11087-3 0  9997,2 55312  69.9989 270.0889 0003204 270.2772  89.8019 14.98339349 72117,6950.164,96.106,574.256,569.802,0.0
55312.0,STARLINK-5296,PAYLOAD,2024-05-02 13:01:26,14.98328132,0.0003152,69.9992,269.0797,269.5035,90.5763,-1.4959e-05,-2.72e-06,0.0,0 STARLINK-5296,1 55312U 23010AV  24123.54266296 -.00000272  00000-0 -14959-4 0  9999,2 55312  69.9992 269.0797 0003152 269.5035  90.5763 14.98328132 72171,6950.199,96.107,574.254,569.873,0.0
55312.0,STARLINK-5296,PAYLOAD,2024-05-02 14:37:34,14.98327517,0.0003151,69.9992,268.9106,270.299,89.7808,-8.7425e-06,-1.97e-06,0.0,0 STARLINK-5296,1 55312U 23010AV  24123.60942313 -.00000197  00000-0 -87425-5 0  9992,2 55312  69.9992 268.9106 0003151 270.2990  89.7808 14.98327517 73370,6950.201,96.107,574.256,569.876,0.0
55312.0,STARLINK-5296,PAYLOAD,2024-05-03 13:03:26,14.98338473,0.0003075,69.9992,266.5543,271.3255,88.7551,7.9547e-05,8.56e-06,0.0,0 STARLINK-5296,1 55312U 23010AV  24124.54405186  .00000856  00000-0  79547-4 0  9993,2 55312  69.9992 266.5543 0003075 271.3255  88.7551 14.98338473 72321,6950.167,96.106,574.169,569.895,0.0
55312.0,STARLINK-5296,PAYLOAD,2024-05-03 14:39:34,14.98338815,0.0003074,69.9992,266.386,271.3512,88.7295,8.225e-05,8.89e-06,0.0,0 STARLINK-5296,1 55312U 23010AV  24124.61081128  .00000889  00000-0  82250-4 0  9998,2 55312  69.9992 266.3860 0003074 271.3512  88.7295 14.98338815 73524,6950.166,96.106,574.167,569.894,0.0
55312.0,STARLINK-5296,PAYLOAD,2024-05-03 19:27:57,14.98342772,0.0003136,69.9993,265.8814,272.0784,88.0016,8.2899e-05,8.97e-06,0.0,0 STARLINK-5296,1 55312U 23010AV  24124.81108744  .00000897  00000-0  82899-4 0  9992,2 55312  69.9993 265.8814 0003136 272.0784  88.0016 14.98342772 73550,6950.153,96.106,574.198,569.839,0.0
55312.0,STARLINK-5296,PAYLOAD,2024-05-04 13:05:28,14.98325246,0.0002793,70.001,264.0308,273.0294,87.0546,-0.00010524,-1.348e-05,0.0,0 STARLINK-5296,1 55312U 23010AV  24125.54546462 -.00001348  00000-0 -10524-3 0  9995,2 55312  70.0010 264.0308 0002793 273.0294  87.0546 14.98325246 72471,6950.208,96.107,574.014,570.131,0.0
55312.0,STARLINK-5296,PAYLOAD,2024-05-05 13:07:28,14.98335826,0.0003068,69.9994,261.505,272.1147,87.9661,-1.7183e-05,-2.98e-06,0.0,0 STARLINK-5296,1 55312U 23010AV  24126.54685773 -.00000298  00000-0 -17183-4 0  9997,2 55312  69.9994 261.5050 0003068 272.1147  87.9661 14.98335826 72627,6950.175,96.107,574.172,569.908,0.0
55312.0,STARLINK-5296,PAYLOAD,2024-05-05 14:43:36,14.98336595,0.0003057,69.9994,261.3367,272.2444,87.8365,-9.0064e-06,-2.01e-06,0.0,0 STARLINK-5296,1 55312U 23010AV  24126.61361685 -.00000201  00000-0 -90064-5 0  9992,2 55312  69.9994 261.3367 0003057 272.2444  87.8365 14.98336595 73822,6950.172,96.107,574.162,569.913,0.0
